STARLINK-37742          
1 69241U 26117D   26170.64188070  .00256494  00000+0  11946-2 0  9991
2 69241  53.1567 231.2511 0001292  32.9384 327.1720 15.82107868  3369
STARLINK-37718          
1 69242U 26117E   26171.00002315  .00059451  00000+0  28807-3 0  9999
2 69242  53.1570 229.4379 0001185  81.1874 166.8057 15.81944161  4621
STARLINK-37735          
1 69243U 26117F   26171.14594698  .00295839  00000+0  13704-2 0  9996
2 69243  53.1582 228.7059 0001615 107.3034 252.8166 15.82118992  3441
STARLINK-37757          
1 69244U 26117G   26171.20672539  .00319297  00000+0  14827-2 0  9997
2 69244  53.1576 228.3702 0003042 291.5979  68.4720 15.82002026  3454
STARLINK-37767          
1 69245U 26117H   26171.20245774  .00235950  00000+0  11047-2 0  9999
2 69245  53.1568 228.3418 0001128 345.7225  14.3766 15.82052302  3451
STARLINK-35759          
1 69246U 26117J   26170.88590167  .00297843  00000+0  13822-2 0  9994
2 69246  53.1564 229.9229 0002127  75.4083 284.7176 15.82073655  3401
STARLINK-37238          
1 69247U 26117K   26171.26050878  .00494358  00000+0  22145-2 0  9996
2 69247  53.1567 227.9894 0000987 253.4577 106.6338 15.82318327  3465
STARLINK-37412          
1 69248U 26117L   26171.25713969  .00500800  00000+0  22380-2 0  9994
2 69248  53.1552 227.9653 0000986 185.0762 175.0252 15.82353865  3469
STARLINK-37398          
1 69249U 26117M   26171.26362828  .00413781  00000+0  19761-2 0  9990
2 69249  53.1566 228.0097 0000204 175.9562 184.1463 15.81144016  3468
STARLINK-37499          
1 69250U 26117N   26171.25542274  .00295102  00000+0  13762-2 0  9996
2 69250  53.1569 227.9547 0000247  26.9546 333.1490 15.81974351  3464
STARLINK-37489          
1 69251U 26117P   26170.43238969  .00313597  00000+0  14553-2 0  9997
2 69251  53.1570 232.0669 0001111  78.6335 281.4813 15.82031889  3331
STARLINK-37434          
1 69252U 26117Q   26171.25069189  .00313560  00000+0  14584-2 0  9999
2 69252  53.1578 227.9219 0000920  54.4656 305.6453 15.81983443  3463
STARLINK-37368          
1 69253U 26117R   26170.35950155  .00347784  00000+0  16058-2 0  9995
2 69253  53.1570 232.3157 0001411  28.9383 331.1718 15.82050377  3321
STARLINK-37517          
1 69254U 26117S   26171.30578265 -.03337973  00000+0 -21539-1 0  9993
2 69254  53.1565 227.5493 0010229  14.3473 345.7838 15.79324052  3471
STARLINK-37378          
1 69255U 26117T   26170.98959164  .00472045  00000+0  21274-2 0  9990
2 69255  53.1562 229.1326 0003340 164.8228 195.2896 15.82246768  3425
STARLINK-37396          
1 69256U 26117U   26171.30302404  .00340931  00000+0  15790-2 0  9991
2 69256  53.1570 227.5298 0001375  29.0959 331.0140 15.82001784  3478
STARLINK-37508          
1 69257U 26117V   26171.18077369  .00335445  00000+0  15953-2 0  9992
2 69257  53.1572 228.1933 0003031   7.8846 352.2224 15.81444365  3455
STARLINK-37276          
1 69258U 26117W   26170.45856662  .00349026  00000+0  16932-2 0  9991
2 69258  53.1564 231.4926 0001862  99.1514 260.9719 15.80977472  3343
STARLINK-37518          
1 69259U 26117X   26171.15521566  .00263070  00000+0  12869-2 0  9991
2 69259  53.1569 228.0180 0005456 306.9405  53.1118 15.81015845  3459
STARLINK-37478          
1 69260U 26117Y   26171.25002315 -.02309537  00000+0 -19487-1 0  9995
2 69260  53.1603 227.5878 0001292  70.5818  86.6871 15.72651505  4675
STARLINK-37506          
1 69261U 26117Z   26171.28139680  .00335807  00000+0  16222-2 0  9995
2 69261  53.1566 227.3809 0002548  39.0557 321.0650 15.81104784  3460
STARLINK-37503          
1 69262U 26117AA  26171.15469393  .00270770  00000+0  13229-2 0  9990
2 69262  53.1582 228.0140 0002777 320.4311  39.6509 15.81033617  3454
STARLINK-37502          
1 69263U 26117AB  26171.28043365  .02544169  00000+0  99740-2 0  9992
2 69263  53.1564 227.3737 0012249 249.8292 110.1414 15.83064921  3472
STARLINK-37486          
1 69264U 26117AC  26171.27940283  .00302185  00000+0  14670-2 0  9994
2 69264  53.1560 227.3676 0002566 331.3278  28.7603 15.81087271  3478
STARLINK-37435          
1 69265U 26117AD  26171.15444665  .00322923  00000+0  15711-2 0  9994
2 69265  53.1576 228.0104 0000982  46.7383 313.3722 15.80985034  3450
STARLINK-37464          
1 69266U 26117AE  26171.27426287  .00305205  00000+0  14109-2 0  9992
2 69266  53.1571 227.3293 0003659  51.4604 308.6747 15.82134755  3474
KUIPER-00282            
1 69267U 26118A   26171.02316149  .00024822  00000+0  74457-3 0  9998
2 69267  51.8600  39.9146 0011833 191.3288 168.7432 15.34258404  4418
KUIPER-00383            
1 69268U 26118B   26171.25002315 -.00018325  00000+0 -53151-3 0  9992
2 69268  51.8596  38.7882 0010792 195.1448 356.5318 15.34354266  3883
KUIPER-00527            
1 69269U 26118C   26170.94934360 -.00020210  00000+0 -58096-3 0  9991
2 69269  51.8624  40.1776 0009516 184.4338 175.6564 15.34719002  4401
KUIPER-00562            
1 69270U 26118D   26170.97413384  .00014581  00000+0  38489-3 0  9990
2 69270  51.8729  39.6077 0001593 122.2313 237.8829 15.38692014  4419
