OBJECT_NAME,OBJECT_ID,EPOCH,MEAN_MOTION,ECCENTRICITY,INCLINATION,RA_OF_ASC_NODE,ARG_OF_PERICENTER,MEAN_ANOMALY,EPHEMERIS_TYPE,CLASSIFICATION_TYPE,NORAD_CAT_ID,ELEMENT_SET_NO,REV_AT_EPOCH,BSTAR,MEAN_MOTION_DOT,MEAN_MOTION_DDOT
STARLINK-37742,2026-117D,2026-06-19T15:24:18.492480,15.82107868,.00012924,53.1567,231.2511,32.9384,327.1720,0,U,69241,999,336,.11946237E-2,.256494E-2,0
STARLINK-37718,2026-117E,2026-06-20T00:00:02.000160,15.81944161,.00011857,53.1570,229.4379,81.1874,166.8057,0,U,69242,999,462,.28807315E-3,.59451E-3,0
STARLINK-37735,2026-117F,2026-06-20T03:30:09.819072,15.82118992,.00016157,53.1582,228.7059,107.3034,252.8166,0,U,69243,999,344,.13703701E-2,.295839E-2,0
STARLINK-37757,2026-117G,2026-06-20T04:57:41.073696,15.82002026,.00030424,53.1576,228.3702,291.5979,68.4720,0,U,69244,999,345,.14826712E-2,.319297E-2,0
STARLINK-37767,2026-117H,2026-06-20T04:51:32.348736,15.82052302,.00011286,53.1568,228.3418,345.7225,14.3766,0,U,69245,999,345,.11046851E-2,.23595E-2,0
STARLINK-35759,2026-117J,2026-06-19T21:15:41.904288,15.82073655,.00021273,53.1564,229.9229,75.4083,284.7176,0,U,69246,999,340,.13821993E-2,.297843E-2,0
STARLINK-37238,2026-117K,2026-06-20T06:15:07.958592,15.82318327,.00009873,53.1567,227.9894,253.4577,106.6338,0,U,69247,999,346,.22145401E-2,.494358E-2,0
STARLINK-37412,2026-117L,2026-06-20T06:10:16.869216,15.82353865,.00009867,53.1552,227.9653,185.0762,175.0252,0,U,69248,999,346,.2237955E-2,.5008E-2,0
STARLINK-37398,2026-117M,2026-06-20T06:19:37.483392,15.81144016,.00002043,53.1566,228.0097,175.9562,184.1463,0,U,69249,999,346,.19760976E-2,.413781E-2,0
STARLINK-37499,2026-117N,2026-06-20T06:07:48.524736,15.81974351,.0000247,53.1569,227.9547,26.9546,333.1490,0,U,69250,999,346,.13762094E-2,.295102E-2,0
STARLINK-37489,2026-117P,2026-06-19T10:22:38.469216,15.82031889,.0001111,53.1570,232.0669,78.6335,281.4813,0,U,69251,999,333,.14552913E-2,.313597E-2,0
STARLINK-37434,2026-117Q,2026-06-20T06:00:59.779296,15.81983443,.00009201,53.1578,227.9219,54.4656,305.6453,0,U,69252,999,346,.14583932E-2,.31356E-2,0
STARLINK-37368,2026-117R,2026-06-19T08:37:40.933920,15.82050377,.0001411,53.1570,232.3157,28.9383,331.1718,0,U,69253,999,332,.16057939E-2,.347784E-2,0
STARLINK-37517,2026-117S,2026-06-20T07:20:19.620960,15.79324052,.00102298,53.1565,227.5493,14.3473,345.7838,0,U,69254,999,347,-.21539428E-1,-.3337973E-1,0
STARLINK-37378,2026-117T,2026-06-19T23:45:00.717696,15.82246768,.00033403,53.1562,229.1326,164.8228,195.2896,0,U,69255,999,342,.21274451E-2,.472045E-2,0
STARLINK-37396,2026-117U,2026-06-20T07:16:21.277056,15.82001784,.00013757,53.1570,227.5298,29.0959,331.0140,0,U,69256,999,347,.15790351E-2,.340931E-2,0
STARLINK-37508,2026-117V,2026-06-20T04:20:18.846816,15.81444365,.00030311,53.1572,228.1933,7.8846,352.2224,0,U,69257,999,345,.15952661E-2,.335445E-2,0
STARLINK-37276,2026-117W,2026-06-19T11:00:20.155968,15.80977472,.00018621,53.1564,231.4926,99.1514,260.9719,0,U,69258,999,334,.16932246E-2,.349026E-2,0
STARLINK-37518,2026-117X,2026-06-20T03:43:30.633024,15.81015845,.00054563,53.1569,228.0180,306.9405,53.1118,0,U,69259,999,345,.12869179E-2,.26307E-2,0
STARLINK-37478,2026-117Y,2026-06-20T06:00:02.000160,15.72651505,.00012926,53.1603,227.5878,70.5818,86.6871,0,U,69260,999,467,-.19486793E-1,-.2309537E-1,0
STARLINK-37506,2026-117Z,2026-06-20T06:45:12.683520,15.81104784,.00025482,53.1566,227.3809,39.0557,321.0650,0,U,69261,999,346,.162218E-2,.335807E-2,0
STARLINK-37503,2026-117AA,2026-06-20T03:42:45.555552,15.81033617,.00027775,53.1582,228.0140,320.4311,39.6509,0,U,69262,999,345,.1322926E-2,.27077E-2,0
STARLINK-37502,2026-117AB,2026-06-20T06:43:49.467360,15.83064921,.00122496,53.1564,227.3737,249.8292,110.1414,0,U,69263,999,347,.99739924E-2,.2544169E-1,0
STARLINK-37486,2026-117AC,2026-06-20T06:42:20.404512,15.81087271,.00025664,53.1560,227.3676,331.3278,28.7603,0,U,69264,999,347,.14670172E-2,.302185E-2,0
STARLINK-37435,2026-117AD,2026-06-20T03:42:24.190560,15.80985034,.00009827,53.1576,228.0104,46.7383,313.3722,0,U,69265,999,345,.15710589E-2,.322923E-2,0
STARLINK-37464,2026-117AE,2026-06-20T06:34:56.311968,15.82134755,.00036594,53.1571,227.3293,51.4604,308.6747,0,U,69266,999,347,.14108506E-2,.305205E-2,0
KUIPER-00282,2026-118A,2026-06-20T00:33:21.152736,15.34258404,.00118338,51.8600,39.9146,191.3288,168.7432,0,U,69267,999,441,.74457459E-3,.24822E-3,0
KUIPER-00383,2026-118B,2026-06-20T06:00:02.000160,15.34354266,.00107924,51.8596,38.7882,195.1448,356.5318,0,U,69268,999,388,-.53150849E-3,-.18325E-3,0
KUIPER-00527,2026-118C,2026-06-19T22:47:03.287040,15.34719002,.00095161,51.8624,40.1776,184.4338,175.6564,0,U,69269,999,440,-.58095758E-3,-.2021E-3,0
KUIPER-00562,2026-118D,2026-06-19T23:22:45.163776,15.38692014,.00015933,51.8729,39.6077,122.2313,237.8829,0,U,69270,999,441,.38489119E-3,.14581E-3,0
